{"type": "FeatureCollection", "features": [ {"type": "Feature", "properties": {"norad_id": 66611, "name": "STARLINK-35583", "group": "last-30-days", "lat": -7.867758513487532, "lon": 167.23234672744812, "alt_km": 415.2646818985595, "timestamp": "2025-12-15T14:57:56.621112+00:00", "meta": {"OBJECT_NAME": "STARLINK-35583", "OBJECT_ID": "2025-270Z", "EPOCH": "2025-12-14T22:00:36.969120", "MEAN_MOTION": 15.50581574, "ECCENTRICITY": 0.00016131, "INCLINATION": 42.9991, "RA_OF_ASC_NODE": 179.8943, "ARG_OF_PERICENTER": 272.165, "MEAN_ANOMALY": 87.9026, "EPHEMERIS_TYPE": 0, "CLASSIFICATION_TYPE": "U", "NORAD_CAT_ID": 66611, "ELEMENT_SET_NO": 999, "REV_AT_EPOCH": 479, "BSTAR": 0.00063322634, "MEAN_MOTION_DOT": 0.00036986, "MEAN_MOTION_DDOT": 0}, "tle": {"line1": "1 66611U 25270Z   25348.91709455  .00036986  00000+0  63323-3 0  9999", "line2": "2 66611  42.9991 179.8943 0001613 272.1650  87.9026 15.50581574  4794"}}, "geometry": {"type": "Point", "coordinates": [167.23234672744812, -7.867758513487532]}}, {"type": "Feature", "properties": {"norad_id": 66612, "name": "STARLINK-36039", "group": "last-30-days", "lat": -39.42938827358539, "lon": 57.94000928485013, "alt_km": 445.92881805053366, "timestamp": "2025-12-15T14:57:56.621121+00:00", "meta": {"OBJECT_NAME": "STARLINK-36039", "OBJECT_ID": "2025-270AA", "EPOCH": "2025-12-14T20:00:06.000192", "MEAN_MOTION": 15.40685905, "ECCENTRICITY": 0.00020755, "INCLINATION": 42.9995, "RA_OF_ASC_NODE": 180.5594, "ARG_OF_PERICENTER": 271.9182, "MEAN_ANOMALY": 268.8256, "EPHEMERIS_TYPE": 0, "CLASSIFICATION_TYPE": "U", "NORAD_CAT_ID": 66612, "ELEMENT_SET_NO": 999, "REV_AT_EPOCH": 473, "BSTAR": 0.00072149356, "MEAN_MOTION_DOT": 0.0002994, "MEAN_MOTION_DDOT": 0}, "tle": {"line1": "1 66612U 25270AA  25348.83340278  .00029940  00000+0  72149-3 0  9993", "line2": "2 66612  42.9995 180.5594 0002075 271.9182 268.8256 15.40685905  4731"}}, "geometry": {"type": "Point", "coordinates": [57.94000928485013, -39.42938827358539]}}, {"type": "Feature", "properties": {"norad_id": 66613, "name": "STARLINK-36037", "group": "last-30-days", "lat": -42.87903769721368, "lon": 90.74627655286106, "alt_km": 446.3325373858479, "timestamp": "2025-12-15T14:57:56.621130+00:00", "meta": {"OBJECT_NAME": "STARLINK-36037", "OBJECT_ID": "2025-270AB", "EPOCH": "2025-12-14T20:00:06.000192", "MEAN_MOTION": 15.40665591, "ECCENTRICITY": 0.00015456, "INCLINATION": 42.9998, "RA_OF_ASC_NODE": 180.4982, "ARG_OF_PERICENTER": 273.3335, "MEAN_ANOMALY": 292.3246, "EPHEMERIS_TYPE": 0, "CLASSIFICATION_TYPE": "U", "NORAD_CAT_ID": 66613, "ELEMENT_SET_NO": 999, "REV_AT_EPOCH": 473, "BSTAR": 0.00071189011, "MEAN_MOTION_DOT": 0.00029515, "MEAN_MOTION_DDOT": 0}, "tle": {"line1": "1 66613U 25270AB  25348.83340278  .00029515  00000+0  71189-3 0  9995", "line2": "2 66613  42.9998 180.4982 0001545 273.3335 292.3246 15.40665591  4732"}}, "geometry": {"type": "Point", "coordinates": [90.74627655286106, -42.87903769721368]}}, {"type": "Feature", "properties": {"norad_id": 66614, "name": "STARLINK-36040", "group": "last-30-days", "lat": -2.5794204122502418, "lon": 172.96888715195297, "alt_km": 414.3797484763754, "timestamp": "2025-12-15T14:57:56.621141+00:00", "meta": {"OBJECT_NAME": "STARLINK-36040", "OBJECT_ID": "2025-270AC", "EPOCH": "2025-12-14T21:58:38.582976", "MEAN_MOTION": 15.50609824, "ECCENTRICITY": 0.00014792, "INCLINATION": 42.9987, "RA_OF_ASC_NODE": 179.882, "ARG_OF_PERICENTER": 282.6428, "MEAN_ANOMALY": 77.4267, "EPHEMERIS_TYPE": 0, "CLASSIFICATION_TYPE": "U", "NORAD_CAT_ID": 66614, "ELEMENT_SET_NO": 999, "REV_AT_EPOCH": 452, "BSTAR": 0.0012770737, "MEAN_MOTION_DOT": 0.00075386, "MEAN_MOTION_DDOT": 0}, "tle": {"line1": "1 66614U 25270AC  25348.91572434  .00075386  00000+0  12771-2 0  9994", "line2": "2 66614  42.9987 179.8820 0001479 282.6428  77.4267 15.50609824  4526"}}, "geometry": {"type": "Point", "coordinates": [172.96888715195297, -2.5794204122502418]}}, {"type": "Feature", "properties": {"norad_id": 66615, "name": "STARLINK-35988", "group": "last-30-days", "lat": -30.843802442852397, "lon": 136.00113856752014, "alt_km": 446.0460826729277, "timestamp": "2025-12-15T14:57:56.621153+00:00", "meta": {"OBJECT_NAME": "STARLINK-35988", "OBJECT_ID": "2025-270AD", "EPOCH": "2025-12-14T20:00:06.000192", "MEAN_MOTION": 15.43621603, "ECCENTRICITY": 7.197e-05, "INCLINATION": 42.9995, "RA_OF_ASC_NODE": 180.4194, "ARG_OF_PERICENTER": 289.0241, "MEAN_ANOMALY": 310.3177, "EPHEMERIS_TYPE": 0, "CLASSIFICATION_TYPE": "U", "NORAD_CAT_ID": 66615, "ELEMENT_SET_NO": 999, "REV_AT_EPOCH": 457, "BSTAR": -0.042711852, "MEAN_MOTION_DOT": -0.01777293, "MEAN_MOTION_DDOT": 0}, "tle": {"line1": "1 66615U 25270AD  25348.83340278 -.01777293  00000+0 -42712-1 0  9991", "line2": "2 66615  42.9995 180.4194 0000719 289.0241 310.3177 15.43621603  4573"}}, "geometry": {"type": "Point", "coordinates": [136.00113856752014, -30.843802442852397]}}, {"type": "Feature", "properties": {"norad_id": 66616, "name": "STARLINK-35391", "group": "last-30-days", "lat": -1.3604788510946557, "lon": 174.2759518656054, "alt_km": 414.7945968460899, "timestamp": "2025-12-15T14:57:56.621168+00:00", "meta": {"OBJECT_NAME": "STARLINK-35391", "OBJECT_ID": "2025-270AE", "EPOCH": "2025-12-14T21:58:08.755968", "MEAN_MOTION": 15.50582256, "ECCENTRICITY": 0.00017039, "INCLINATION": 42.9993, "RA_OF_ASC_NODE": 179.88, "ARG_OF_PERICENTER": 264.7617, "MEAN_ANOMALY": 95.3049, "EPHEMERIS_TYPE": 0, "CLASSIFICATION_TYPE": "U", "NORAD_CAT_ID": 66616, "ELEMENT_SET_NO": 999, "REV_AT_EPOCH": 479, "BSTAR": 0.00061543024, "MEAN_MOTION_DOT": 0.00035933, "MEAN_MOTION_DDOT": 0}, "tle": {"line1": "1 66616U 25270AE  25348.91537912  .00035933  00000+0  61543-3 0  9994", "line2": "2 66616  42.9993 179.8800 0001703 264.7617  95.3049 15.50582256  4799"}}, "geometry": {"type": "Point", "coordinates": [174.2759518656054, -1.3604788510946557]}}, {"type": "Feature", "properties": {"norad_id": 66617, "name": "STARLINK-35940", "group": "last-30-days", "lat": -33.46580791848751, "lon": 143.78556584490124, "alt_km": 446.6383216881459, "timestamp": "2025-12-15T14:57:56.621177+00:00", "meta": {"OBJECT_NAME": "STARLINK-35940", "OBJECT_ID": "2025-271A", "EPOCH": "2025-12-14T20:00:06.000192", "MEAN_MOTION": 15.44821755, "ECCENTRICITY": 0.00015763, "INCLINATION": 53.1591, "RA_OF_ASC_NODE": 177.2385, "ARG_OF_PERICENTER": 88.0958, "MEAN_ANOMALY": 156.4416, "EPHEMERIS_TYPE": 0, "CLASSIFICATION_TYPE": "U", "NORAD_CAT_ID": 66617, "ELEMENT_SET_NO": 999, "REV_AT_EPOCH": 457, "BSTAR": -0.047712091, "MEAN_MOTION_DOT": -0.02023584, "MEAN_MOTION_DDOT": 0}, "tle": {"line1": "1 66617U 25271A   25348.83340278 -.02023584  00000+0 -47712-1 0  9997", "line2": "2 66617  53.1591 177.2385 0001576  88.0958 156.4416 15.44821755  4577"}}, "geometry": {"type": "Point", "coordinates": [143.78556584490124, -33.46580791848751]}}, {"type": "Feature", "properties": {"norad_id": 66618, "name": "STARLINK-35970", "group": "last-30-days", "lat": 27.678171328731914, "lon": -163.51112356691445, "alt_km": 414.887681217574, "timestamp": "2025-12-15T14:57:56.621186+00:00", "meta": {"OBJECT_NAME": "STARLINK-35970", "OBJECT_ID": "2025-271B", "EPOCH": "2025-12-14T20:00:06.000192", "MEAN_MOTION": 15.49275438, "ECCENTRICITY": 8.144e-05, "INCLINATION": 53.1594, "RA_OF_ASC_NODE": 177.1109, "ARG_OF_PERICENTER": 65.9025, "MEAN_ANOMALY": 239.9687, "EPHEMERIS_TYPE": 0, "CLASSIFICATION_TYPE": "U", "NORAD_CAT_ID": 66618, "ELEMENT_SET_NO": 999, "REV_AT_EPOCH": 458, "BSTAR": 0.00089142367, "MEAN_MOTION_DOT": 0.00049384, "MEAN_MOTION_DDOT": 0}, "tle": {"line1": "1 66618U 25271B   25348.83340278  .00049384  00000+0  89142-3 0  9995", "line2": "2 66618  53.1594 177.1109 0000814  65.9025 239.9687 15.49275438  4581"}}, "geometry": {"type": "Point", "coordinates": [-163.51112356691445, 27.678171328731914]}}, {"type": "Feature", "properties": {"norad_id": 66619, "name": "STARLINK-35951", "group": "last-30-days", "lat": -8.135545898028122, "lon": 167.27438079961445, "alt_km": 420.58103942044363, "timestamp": "2025-12-15T14:57:56.621196+00:00", "meta": {"OBJECT_NAME": "STARLINK-35951", "OBJECT_ID": "2025-271C", "EPOCH": "2025-12-14T20:00:06.000192", "MEAN_MOTION": 15.4927561, "ECCENTRICITY": 4.385e-05, "INCLINATION": 53.1599, "RA_OF_ASC_NODE": 177.2062, "ARG_OF_PERICENTER": 91.1098, "MEAN_ANOMALY": 169.104, "EPHEMERIS_TYPE": 0, "CLASSIFICATION_TYPE": "U", "NORAD_CAT_ID": 66619, "ELEMENT_SET_NO": 999, "REV_AT_EPOCH": 458, "BSTAR": 0.0009109851, "MEAN_MOTION_DOT": 0.00050485, "MEAN_MOTION_DDOT": 0}, "tle": {"line1": "1 66619U 25271C   25348.83340278  .00050485  00000+0  91099-3 0  9994", "line2": "2 66619  53.1599 177.2062 0000438  91.1098 169.1040 15.49275610  4588"}}, "geometry": {"type": "Point", "coordinates": [167.27438079961445, -8.135545898028122]}}, {"type": "Feature", "properties": {"norad_id": 66620, "name": "STARLINK-35936", "group": "last-30-days", "lat": -12.699238761782086, "lon": 163.71353991808613, "alt_km": 420.8731678746517, "timestamp": "2025-12-15T14:57:56.621205+00:00", "meta": {"OBJECT_NAME": "STARLINK-35936", "OBJECT_ID": "2025-271D", "EPOCH": "2025-12-14T20:00:06.000192", "MEAN_MOTION": 15.49274646, "ECCENTRICITY": 9.725e-05, "INCLINATION": 53.1599, "RA_OF_ASC_NODE": 177.2194, "ARG_OF_PERICENTER": 59.5829, "MEAN_ANOMALY": 194.8803, "EPHEMERIS_TYPE": 0, "CLASSIFICATION_TYPE": "U", "NORAD_CAT_ID": 66620, "ELEMENT_SET_NO": 999, "REV_AT_EPOCH": 457, "BSTAR": 0.0008947211, "MEAN_MOTION_DOT": 0.00049568, "MEAN_MOTION_DDOT": 0}, "tle": {"line1": "1 66620U 25271D   25348.83340278  .00049568  00000+0  89472-3 0  9998", "line2": "2 66620  53.1599 177.2194 0000972  59.5829 194.8803 15.49274646  4578"}}, "geometry": {"type": "Point", "coordinates": [163.71353991808613, -12.699238761782086]}}]}